[{"OBJECT_NAME":"NUSTAR","OBJECT_ID":"2012-031A","EPOCH":"2026-03-10T00:00:02.999808","MEAN_MOTION":15.07728841,"ECCENTRICITY":0.00071224,"INCLINATION":6.0266,"RA_OF_ASC_NODE":57.5732,"ARG_OF_PERICENTER":70.6924,"MEAN_ANOMALY":331.0724,"EPHEMERIS_TYPE":0,"CLASSIFICATION_TYPE":"U","NORAD_CAT_ID":38358,"ELEMENT_SET_NO":999,"REV_AT_EPOCH":130,"BSTAR":0.0011080621,"MEAN_MOTION_DOT":0.00018332,"MEAN_MOTION_DDOT":0},{"OBJECT_NAME":"STARLINK-3780","OBJECT_ID":"2022-041T","EPOCH":"2026-03-09T19:12:21.414240","MEAN_MOTION":15.08837,"ECCENTRICITY":0.00011974,"INCLINATION":53.2158,"RA_OF_ASC_NODE":108.623,"ARG_OF_PERICENTER":87.9679,"MEAN_ANOMALY":272.1451,"EPHEMERIS_TYPE":0,"CLASSIFICATION_TYPE":"U","NORAD_CAT_ID":52278,"ELEMENT_SET_NO":999,"REV_AT_EPOCH":21438,"BSTAR":3.4336727e-5,"MEAN_MOTION_DOT":2.59e-6,"MEAN_MOTION_DDOT":0}]
